NORAD_CAT_ID,OBJECT_NAME,OBJECT_TYPE,EPOCH,MEAN_MOTION,ECCENTRICITY,INCLINATION,RA_OF_ASC_NODE,ARG_OF_PERICENTER,MEAN_ANOMALY,BSTAR,MEAN_MOTION_DOT,MEAN_MOTION_DDOT,TLE_LINE0,TLE_LINE1,TLE_LINE2,SEMIMAJOR_AXIS,PERIOD,APOGEE,PERIGEE,DECAYED
49132.0,STARLINK-3090,PAYLOAD,2023-03-02 14:02:00,14.98325878,0.0003115,70.0003,195.7743,269.0681,91.0121,0.00019055,2.181e-05,0.0,0 STARLINK-3090,1 49132U 21082C   23061.58472936  .00002181  00000-0  19055-3 0  9993,2 49132  70.0003 195.7743 0003115 269.0681  91.0121 14.98325878 80747,6950.206,96.107,574.236,569.906,0.0
49132.0,STARLINK-3090,PAYLOAD,2023-03-03 09:15:37,14.98328001,0.0003026,69.9997,193.7536,265.0338,95.0475,0.00018364,2.099e-05,0.0,0 STARLINK-3090,1 49132U 21082C   23062.38584984  .00002099  00000-0  18364-3 0  9999,2 49132  69.9997 193.7536 0003026 265.0338  95.0475 14.98328001 80860,6950.199,96.107,574.167,569.961,0.0
49132.0,STARLINK-3090,PAYLOAD,2023-03-03 10:51:45,14.98328717,0.000299,69.9998,193.5863,269.2052,90.8764,0.000168,1.912e-05,0.0,0 STARLINK-3090,1 49132U 21082C   23062.45261029  .00001912  00000-0  16800-3 0  9995,2 49132  69.9998 193.5863 0002990 269.2052  90.8764 14.98328717 80879,6950.197,96.107,574.14,569.984,0.0
49132.0,STARLINK-3090,PAYLOAD,2023-03-04 10:53:46,14.98335691,0.0002794,70.0001,191.0622,273.4968,86.5871,2.8e-05,2.41e-06,0.0,0 STARLINK-3090,1 49132U 21082C   23063.45400800  .00000241  00000-0  28000-4 0  9998,2 49132  70.0001 191.0622 0002794 273.4968  86.5871 14.98335691 81026,6950.175,96.107,573.982,570.098,0.0
49132.0,STARLINK-3090,PAYLOAD,2023-03-04 12:29:54,14.98335335,0.000281,70.0012,190.8947,273.1447,86.9391,3.7192e-05,3.51e-06,0.0,0 STARLINK-3090,1 49132U 21082C   23063.52076777  .00000351  00000-0  37192-4 0  9992,2 49132  70.0012 190.8947 0002810 273.1447  86.9391 14.98335335 81030,6950.176,96.107,573.994,570.088,0.0
49132.0,STARLINK-3090,PAYLOAD,2023-03-04 17:18:18,14.98342434,0.000255,70.001,190.3895,270.5646,89.5221,-2.2061e-06,-1.19e-06,0.0,0 STARLINK-3090,1 49132U 21082C   23063.72104328 -.00000119  00000-0 -22061-5 0  9992,2 49132  70.0010 190.3895 0002550 270.5646  89.5221 14.98342434 81060,6950.154,96.106,573.792,570.247,0.0
49132.0,STARLINK-3090,PAYLOAD,2023-03-05 07:43:31,14.98326242,0.0002127,70.0045,188.8768,264.0568,96.0348,6.3552e-05,6.65e-06,0.0,0 STARLINK-3090,1 49132U 21082C   23064.32189033  .00000665  00000-0  63552-4 0  9998,2 49132  70.0045 188.8768 0002127 264.0568  96.0348 14.98326242 81152,6950.205,96.107,573.548,570.591,0.0
49132.0,STARLINK-3090,PAYLOAD,2023-03-05 17:20:19,14.98330086,0.0002499,70.0039,187.8673,269.2365,90.8508,-2.1469e-05,-3.49e-06,0.0,0 STARLINK-3090,1 49132U 21082C   23064.72245009 -.00000349  00000-0 -21469-4 0  9990,2 49132  70.0039 187.8673 0002499 269.2365  90.8508 14.98330086 81211,6950.193,96.107,573.794,570.321,0.0
49132.0,STARLINK-3090,PAYLOAD,2023-03-06 01:20:59,14.98334593,0.0002589,70.0014,187.0242,273.9698,86.1165,4.7824e-05,4.78e-06,0.0,0 STARLINK-3090,1 49132U 21082C   23065.05624507  .00000478  00000-0  47824-4 0  9995,2 49132  70.0014 187.0242 0002589 273.9698  86.1165 14.98334593 81268,6950.179,96.107,573.843,570.244,0.0
49132.0,STARLINK-3090,PAYLOAD,2023-03-06 12:33:55,14.98335588,0.0002613,70.0018,185.8467,272.9653,87.1207,2.1603e-05,1.65e-06,0.0,0 STARLINK-3090,1 49132U 21082C   23065.52356395  .00000165  00000-0  21603-4 0  9994,2 49132  70.0018 185.8467 0002613 272.9653  87.1207 14.98335588 81336,6950.176,96.107,573.857,570.225,0.0
49132.0,STARLINK-3090,PAYLOAD,2023-03-07 06:11:24,14.98328477,0.0003073,70.0006,183.9931,268.1793,91.9014,2.8715e-05,2.5e-06,0.0,0 STARLINK-3090,1 49132U 21082C   23066.25792560  .00000250  00000-0  28715-4 0  9999,2 49132  70.0006 183.9931 0003073 268.1793  91.9014 14.98328477 81441,6950.198,96.107,574.198,569.927,0.0
49132.0,STARLINK-3090,PAYLOAD,2023-03-07 09:23:41,14.98314792,0.0003154,69.9999,183.6544,266.1548,93.925,0.00019653,2.252e-05,0.0,0 STARLINK-3090,1 49132U 21082C   23066.39145110  .00002252  00000-0  19653-3 0  9991,2 49132  69.9999 183.6544 0003154 266.1548  93.9250 14.98314792 81463,6950.24,96.108,574.297,569.913,0.0
49132.0,STARLINK-3090,PAYLOAD,2023-03-08 01:25:01,14.98335391,0.0003203,70.0,181.9712,266.4509,93.6283,4.8101e-05,4.81e-06,0.0,0 STARLINK-3090,1 49132U 21082C   23067.05904173  .00000481  00000-0  48101-4 0  9990,2 49132  70.0000 181.9712 0003203 266.4509  93.6283 14.98335391 81564,6950.176,96.107,574.267,569.815,0.0
49132.0,STARLINK-3090,PAYLOAD,2023-03-08 09:25:42,14.98325941,0.0003053,69.998,181.1292,263.5496,96.5315,8.4341e-05,9.13e-06,0.0,0 STARLINK-3090,1 49132U 21082C   23067.39284770  .00000913  00000-0  84341-4 0  9997,2 49132  69.9980 181.1292 0003053 263.5496  96.5315 14.98325941 81613,6950.205,96.107,574.192,569.949,0.0
49132.0,STARLINK-3090,PAYLOAD,2023-03-09 17:28:21,14.98349161,0.0003052,69.9977,177.7622,260.1761,99.9054,0.00027125,3.147e-05,0.0,0 STARLINK-3090,1 49132U 21082C   23068.72802909  .00003147  00000-0  27125-3 0  9993,2 49132  69.9977 177.7622 0003052 260.1761  99.9054 14.98349161 81813,6950.134,96.106,574.12,569.877,0.0
49132.0,STARLINK-3090,PAYLOAD,2023-03-09 23:52:54,14.98338759,0.0003037,69.9992,177.0903,276.5204,83.5609,0.00018216,2.082e-05,0.0,0 STARLINK-3090,1 49132U 21082C   23068.99507528  .00002082  00000-0  18216-3 0  9999,2 49132  69.9992 177.0903 0003037 276.5204  83.5609 14.98338759 81851,6950.166,96.106,574.142,569.92,0.0
49132.0,STARLINK-3090,PAYLOAD,2023-03-10 11:05:51,14.9833342,0.0002611,70.0012,175.9141,273.9335,86.1526,0.00012581,1.409e-05,0.0,0 STARLINK-3090,1 49132U 21082C   23069.46240068  .00001409  00000-0  12581-3 0  9996,2 49132  70.0012 175.9141 0002611 273.9335  86.1526 14.98333420 81926,6950.182,96.107,573.862,570.233,0.0
49132.0,STARLINK-3090,PAYLOAD,2023-03-10 17:30:23,14.98338509,0.000241,70.0017,175.2415,267.6923,92.396,0.00017922,2.047e-05,0.0,0 STARLINK-3090,1 49132U 21082C   23069.72943485  .00002047  00000-0  17922-3 0  9991,2 49132  70.0017 175.2415 0002410 267.6923  92.3960 14.98338509 81966,6950.167,96.106,573.707,570.357,0.0
49132.0,STARLINK-3090,PAYLOAD,2023-03-11 06:19:28,14.98334908,0.0002571,70.0008,173.8974,261.4955,98.5912,-0.00019837,-2.459e-05,0.0,0 STARLINK-3090,1 49132U 21082C   23070.26352646 -.00002459  00000-0 -19837-3 0  9991,2 49132  70.0008 173.8974 0002571 261.4955  98.5912 14.98334908 82049,6950.178,96.107,573.83,570.256,0.0
49132.0,STARLINK-3090,PAYLOAD,2023-03-11 09:31:45,14.9832842,0.0002517,70.0021,173.5612,256.4674,103.6205,-0.00019987,-2.477e-05,0.0,0 STARLINK-3090,1 49132U 21082C   23070.39704947 -.00002477  00000-0 -19987-3 0  9996,2 49132  70.0021 173.5612 0002517 256.4674 103.6205 14.98328420 82069,6950.198,96.107,573.812,570.313,0.0
49132.0,STARLINK-3090,PAYLOAD,2023-03-11 14:20:09,14.98327591,0.0002649,70.0019,173.0563,261.1671,98.9188,-0.0002396,-2.95e-05,0.0,0 STARLINK-3090,1 49132U 21082C   23070.59733138 -.00002950  00000-0 -23960-3 0  9994,2 49132  70.0019 173.0563 0002649 261.1671  98.9188 14.98327591 82099,6950.2,96.107,573.906,570.224,0.0
49132.0,STARLINK-3090,PAYLOAD,2023-03-11 15:56:17,14.98327812,0.0002608,70.0021,172.888,260.6076,99.4788,-0.00023054,-2.842e-05,0.0,0 STARLINK-3090,1 49132U 21082C   23070.66409089 -.00002842  00000-0 -23054-3 0  9991,2 49132  70.0021 172.8880 0002608 260.6076  99.4788 14.98327812 82109,6950.2,96.107,573.877,570.252,0.0
49132.0,STARLINK-3090,PAYLOAD,2023-03-12 06:21:30,14.98320564,0.000263,70.0017,171.3725,264.5655,95.5204,-7.3015e-05,-9.64e-06,0.0,0 STARLINK-3090,1 49132U 21082C   23071.26493420 -.00000964  00000-0 -73015-4 0  9996,2 49132  70.0017 171.3725 0002630 264.5655  95.5204 14.98320564 82193,6950.222,96.108,573.915,570.259,0.0
49132.0,STARLINK-3090,PAYLOAD,2023-03-12 12:46:02,14.98323059,0.0002644,70.0016,170.6997,259.2845,100.8017,-0.00015123,-1.897e-05,0.0,0 STARLINK-3090,1 49132U 21082C   23071.53197595 -.00001897  00000-0 -15123-3 0  9991,2 49132  70.0016 170.6997 0002644 259.2845 100.8017 14.98323059 82231,6950.214,96.107,573.917,570.242,0.0
49132.0,STARLINK-3090,PAYLOAD,2023-03-13 04:47:21,14.98342328,0.0003364,70.0011,169.014,259.7524,100.3255,-3.4459e-06,-1.34e-06,0.0,0 STARLINK-3090,1 49132U 21082C   23072.19955762 -.00000134  00000-0 -34459-5 0  9990,2 49132  70.0011 169.0140 0003364 259.7524 100.3255 14.98342328 82337,6950.155,96.106,574.358,569.682,0.0
49132.0,STARLINK-3090,PAYLOAD,2023-03-13 06:23:30,14.98310859,0.000311,70.0005,168.8454,263.2705,96.8101,0.00056833,6.691e-05,0.0,0 STARLINK-3090,1 49132U 21082C   23072.26632801  .00006691  00000-0  56833-3 0  9994,2 49132  70.0005 168.8454 0003110 263.2705  96.8101 14.98310859 82349,6950.252,96.108,574.279,569.956,0.0
49132.0,STARLINK-3090,PAYLOAD,2023-03-14 06:25:31,14.98331399,0.0003874,69.9995,166.3195,269.6492,90.4223,0.0001956,2.242e-05,0.0,0 STARLINK-3090,1 49132U 21082C   23073.26772489  .00002242  00000-0  19560-3 0  9996,2 49132  69.9995 166.3195 0003874 269.6492  90.4223 14.98331399 82492,6950.189,96.107,574.746,569.361,0.0
49132.0,STARLINK-3090,PAYLOAD,2023-03-14 12:50:03,14.98331668,0.0003164,69.9998,165.6464,261.4875,98.5926,0.00020875,2.399e-05,0.0,0 STARLINK-3090,1 49132U 21082C   23073.53476458  .00002399  00000-0  20875-3 0  9997,2 49132  69.9998 165.6464 0003164 261.4875  98.5926 14.98331668 82536,6950.188,96.107,574.252,569.854,0.0
49132.0,STARLINK-3090,PAYLOAD,2023-03-15 12:52:03,14.98347341,0.000337,70.0003,163.1226,265.5455,94.5319,9.1465e-05,9.99e-06,0.0,0 STARLINK-3090,1 49132U 21082C   23074.53615060  .00000999  00000-0  91465-4 0  9990,2 49132  70.0003 163.1226 0003370 265.5455  94.5319 14.98347341 82686,6950.139,96.106,574.346,569.662,0.0
49132.0,STARLINK-3090,PAYLOAD,2023-03-16 04:53:24,14.98333833,0.0002009,70.003,161.4413,250.7066,109.3876,0.00012661,1.418e-05,0.0,0 STARLINK-3090,1 49132U 21082C   23075.20375320  .00001418  00000-0  12661-3 0  9994,2 49132  70.0030 161.4413 0002009 250.7066 109.3876 14.98333833 82782,6950.181,96.107,573.442,570.65,0.0
